{\rtf1\ansi\ansicpg1252\cocoartf2822
\cocoatextscaling0\cocoaplatform0{\fonttbl\f0\fswiss\fcharset0 Helvetica;\f1\fnil\fcharset0 HelveticaNeue;\f2\fnil\fcharset0 HelveticaNeue-Bold;
}
{\colortbl;\red255\green255\blue255;}
{\*\expandedcolortbl;;}
\paperw11900\paperh16840\margl1440\margr1440\vieww18480\viewh17720\viewkind0
\pard\tx720\tx1440\tx2160\tx2880\tx3600\tx4320\tx5040\tx5760\tx6480\tx7200\tx7920\tx8640\pardirnatural\partightenfactor0

\f0\fs50 \cf0 <?xml version="1.0"?>\
<gpx version="1.1" creator="Xcode">\
  <!-- Start Location office -->\
  <wpt lat="
\f1 25.186687
\f0 " lon="
\f1 55.260418
\f0 ">\
    <name>Start</name>\
  </wpt>\
\
\
  <!-- End Location abudhabi -->\
  <wpt lat="
\f2\b 24.466667
\f0\b0 " lon="
\f2\b 54.366669
\f0\b0 ">\
    <name>End</name>\
  </wpt>\
</gpx>\
}